{
  "type": "FeatureCollection",
  "features": [
    {
      "type": "Feature",
      "geometry": {
        "type": "Point",
        "coordinates": [
          91.8542,
          24.6497
        ]
      },
      "properties": {
        "id": "23",
        "cause": "Heavy rain",
        "date_start": "1985-06-03",
        "date_end": "1985-06-22",
        "dead": 7,
        "displaced": 100000,
        "severity": 2.0,
        "is_inside_border": true
      }
    },
    {
      "type": "Feature",
      "geometry": {
        "type": "Point",
        "coordinates": [
          89.9853,
          22.6176
        ]
      },
      "properties": {
        "id": "29",
        "cause": "Heavy rain",
        "date_start": "1985-07-03",
        "date_end": "1985-07-04",
        "dead": 2,
        "displaced": 77000,
        "severity": 1.0,
        "is_inside_border": true
      }
    },
    {
      "type": "Feature",
      "geometry": {
        "type": "Point",
        "coordinates": [
          90.1999,
          23.1028
        ]
      },
      "properties": {
        "id": "36",
        "cause": "Heavy rain",
        "date_start": "1985-07-21",
        "date_end": "1985-08-17",
        "dead": 15,
        "displaced": 175000,
        "severity": 1.0,
        "is_inside_border": true
      }
    },
    {
      "type": "Feature",
      "geometry": {
        "type": "Point",
        "coordinates": [
          89.6457,
          24.7027
        ]
      },
      "properties": {
        "id": "56",
        "cause": "Heavy Rain",
        "date_start": "1985-09-27",
        "date_end": "1985-09-28",
        "dead": 0,
        "displaced": 800,
        "severity": 1.0,
        "is_inside_border": true
      }
    },
    {
      "type": "Feature",
      "geometry": {
        "type": "Point",
        "coordinates": [
          91.8011,
          24.7767
        ]
      },
      "properties": {
        "id": "146",
        "cause": "Heavy rain",
        "date_start": "1987-07-23",
        "date_end": "1987-09-24",
        "dead": 880,
        "displaced": 500000,
        "severity": 2.0,
        "is_inside_border": true
      }
    },
    {
      "type": "Feature",
      "geometry": {
        "type": "Point",
        "coordinates": [
          89.2694,
          22.9348
        ]
      },
      "properties": {
        "id": "188",
        "cause": "Heavy rain",
        "date_start": "1988-06-14",
        "date_end": "1988-06-20",
        "dead": 8,
        "displaced": 15000,
        "severity": 1.0,
        "is_inside_border": true
      }
    },
    {
      "type": "Feature",
      "geometry": {
        "type": "Point",
        "coordinates": [
          90.7053,
          24.0121
        ]
      },
      "properties": {
        "id": "193",
        "cause": "Monsoonal rain",
        "date_start": "1988-06-27",
        "date_end": "1988-08-15",
        "dead": 254,
        "displaced": 5250000,
        "severity": 1.0,
        "is_inside_border": true
      }
    },
    {
      "type": "Feature",
      "geometry": {
        "type": "Point",
        "coordinates": [
          90.3467,
          23.8201
        ]
      },
      "properties": {
        "id": "227",
        "cause": "Monsoonal rain",
        "date_start": "1988-08-20",
        "date_end": "1988-10-03",
        "dead": 0,
        "displaced": 0,
        "severity": 2.0,
        "is_inside_border": true
      }
    },
    {
      "type": "Feature",
      "geometry": {
        "type": "Point",
        "coordinates": [
          90.9326,
          23.5967
        ]
      },
      "properties": {
        "id": "316",
        "cause": "Monsoonal rain",
        "date_start": "1989-07-03",
        "date_end": "1989-07-05",
        "dead": 2,
        "displaced": 20000,
        "severity": 1.0,
        "is_inside_border": true
      }
    },
    {
      "type": "Feature",
      "geometry": {
        "type": "Point",
        "coordinates": [
          91.6662,
          24.5345
        ]
      },
      "properties": {
        "id": "332",
        "cause": "Heavy rain",
        "date_start": "1989-07-06",
        "date_end": "1989-07-23",
        "dead": 1,
        "displaced": 0,
        "severity": 1.0,
        "is_inside_border": true
      }
    },
    {
      "type": "Feature",
      "geometry": {
        "type": "Point",
        "coordinates": [
          91.5698,
          24.6208
        ]
      },
      "properties": {
        "id": "345",
        "cause": "Monsoonal rain",
        "date_start": "1989-08-01",
        "date_end": "1989-08-07",
        "dead": 200,
        "displaced": 600000,
        "severity": 1.0,
        "is_inside_border": true
      }
    },
    {
      "type": "Feature",
      "geometry": {
        "type": "Point",
        "coordinates": [
          92.1361,
          21.3073
        ]
      },
      "properties": {
        "id": "399",
        "cause": "Heavy rain",
        "date_start": "1990-03-03",
        "date_end": "1990-03-05",
        "dead": 0,
        "displaced": 1200,
        "severity": 1.0,
        "is_inside_border": true
      }
    },
    {
      "type": "Feature",
      "geometry": {
        "type": "Point",
        "coordinates": [
          90.9914,
          23.5125
        ]
      },
      "properties": {
        "id": "402",
        "cause": "Heavy rain",
        "date_start": "1990-03-24",
        "date_end": "1990-03-30",
        "dead": 50,
        "displaced": 10000,
        "severity": 1.0,
        "is_inside_border": true
      }
    },
    {
      "type": "Feature",
      "geometry": {
        "type": "Point",
        "coordinates": [
          90.3022,
          25.0516
        ]
      },
      "properties": {
        "id": "407",
        "cause": "Heavy rain",
        "date_start": "1990-04-22",
        "date_end": "1990-04-25",
        "dead": 54,
        "displaced": 40000,
        "severity": 1.0,
        "is_inside_border": true
      }
    },
    {
      "type": "Feature",
      "geometry": {
        "type": "Point",
        "coordinates": [
          89.3604,
          23.9413
        ]
      },
      "properties": {
        "id": "436",
        "cause": "Heavy rain",
        "date_start": "1990-07-14",
        "date_end": "1990-09-06",
        "dead": 64,
        "displaced": 392077,
        "severity": 1.0,
        "is_inside_border": true
      }
    },
    {
      "type": "Feature",
      "geometry": {
        "type": "Point",
        "coordinates": [
          90.4685,
          22.6284
        ]
      },
      "properties": {
        "id": "453",
        "cause": "Monsoonal rain",
        "date_start": "1990-08-25",
        "date_end": "1990-08-27",
        "dead": 0,
        "displaced": 50000,
        "severity": 1.0,
        "is_inside_border": true
      }
    },
    {
      "type": "Feature",
      "geometry": {
        "type": "Point",
        "coordinates": [
          89.9062,
          24.1354
        ]
      },
      "properties": {
        "id": "464",
        "cause": "Heavy rain",
        "date_start": "1990-09-26",
        "date_end": "1990-09-30",
        "dead": 14,
        "displaced": 300000,
        "severity": 1.0,
        "is_inside_border": true
      }
    },
    {
      "type": "Feature",
      "geometry": {
        "type": "Point",
        "coordinates": [
          89.9598,
          24.4682
        ]
      },
      "properties": {
        "id": "469",
        "cause": "Torrential rain",
        "date_start": "1990-10-10",
        "date_end": "1990-10-13",
        "dead": 9,
        "displaced": 700000,
        "severity": 1.0,
        "is_inside_border": true
      }
    },
    {
      "type": "Feature",
      "geometry": {
        "type": "Point",
        "coordinates": [
          90.5909,
          24.2158
        ]
      },
      "properties": {
        "id": "471",
        "cause": "Heavy rain",
        "date_start": "1990-10-14",
        "date_end": "1990-10-17",
        "dead": 0,
        "displaced": 30000,
        "severity": 1.0,
        "is_inside_border": true
      }
    },
    {
      "type": "Feature",
      "geometry": {
        "type": "Point",
        "coordinates": [
          90.7018,
          22.5748
        ]
      },
      "properties": {
        "id": "475",
        "cause": "Torrential rain",
        "date_start": "1990-10-26",
        "date_end": "1990-10-29",
        "dead": 0,
        "displaced": 4500,
        "severity": 1.0,
        "is_inside_border": true
      }
    },
    {
      "type": "Feature",
      "geometry": {
        "type": "Point",
        "coordinates": [
          91.5924,
          24.9405
        ]
      },
      "properties": {
        "id": "505",
        "cause": "Torrential rain",
        "date_start": "1991-04-08",
        "date_end": "1991-04-09",
        "dead": 0,
        "displaced": 0,
        "severity": 1.0,
        "is_inside_border": true
      }
    },
    {
      "type": "Feature",
      "geometry": {
        "type": "Point",
        "coordinates": [
          92.1857,
          22.2146
        ]
      },
      "properties": {
        "id": "507",
        "cause": "Tropical cyclone",
        "date_start": "1991-04-29",
        "date_end": "1991-05-10",
        "dead": 138000,
        "displaced": 10000000,
        "severity": 1.0,
        "is_inside_border": true
      }
    },
    {
      "type": "Feature",
      "geometry": {
        "type": "Point",
        "coordinates": [
          91.5273,
          24.6228
        ]
      },
      "properties": {
        "id": "511",
        "cause": "Heavy rain",
        "date_start": "1991-05-14",
        "date_end": "1991-05-31",
        "dead": 100,
        "displaced": 1000000,
        "severity": 1.0,
        "is_inside_border": true
      }
    },
    {
      "type": "Feature",
      "geometry": {
        "type": "Point",
        "coordinates": [
          91.3972,
          22.9459
        ]
      },
      "properties": {
        "id": "525",
        "cause": "Monsoonal rain",
        "date_start": "1991-06-17",
        "date_end": "1991-06-27",
        "dead": 0,
        "displaced": 160000,
        "severity": 1.0,
        "is_inside_border": true
      }
    },
    {
      "type": "Feature",
      "geometry": {
        "type": "Point",
        "coordinates": [
          89.3374,
          24.0753
        ]
      },
      "properties": {
        "id": "531",
        "cause": "Heavy rain",
        "date_start": "1991-07-04",
        "date_end": "1991-07-06",
        "dead": 0,
        "displaced": 40000,
        "severity": 1.0,
        "is_inside_border": true
      }
    },
    {
      "type": "Feature",
      "geometry": {
        "type": "Point",
        "coordinates": [
          89.6246,
          23.8915
        ]
      },
      "properties": {
        "id": "537",
        "cause": "Heavy rain",
        "date_start": "1991-07-10",
        "date_end": "1991-07-15",
        "dead": 4,
        "displaced": 70000,
        "severity": 1.0,
        "is_inside_border": true
      }
    },
    {
      "type": "Feature",
      "geometry": {
        "type": "Point",
        "coordinates": [
          90.0572,
          24.1787
        ]
      },
      "properties": {
        "id": "541",
        "cause": "Heavy rain",
        "date_start": "1991-07-14",
        "date_end": "1991-07-16",
        "dead": 17,
        "displaced": 300000,
        "severity": 1.0,
        "is_inside_border": true
      }
    },
    {
      "type": "Feature",
      "geometry": {
        "type": "Point",
        "coordinates": [
          91.9906,
          21.9581
        ]
      },
      "properties": {
        "id": "556",
        "cause": "Heavy rain",
        "date_start": "1991-08-02",
        "date_end": "1991-08-07",
        "dead": 6,
        "displaced": 50000,
        "severity": 1.0,
        "is_inside_border": true
      }
    },
    {
      "type": "Feature",
      "geometry": {
        "type": "Point",
        "coordinates": [
          90.2027,
          24.6649
        ]
      },
      "properties": {
        "id": "563",
        "cause": "Heavy rain",
        "date_start": "1991-08-09",
        "date_end": "1991-08-20",
        "dead": 800,
        "displaced": 0,
        "severity": 1.0,
        "is_inside_border": true
      }
    },
    {
      "type": "Feature",
      "geometry": {
        "type": "Point",
        "coordinates": [
          90.2142,
          25.1817
        ]
      },
      "properties": {
        "id": "583",
        "cause": "Monsoonal rain",
        "date_start": "1991-09-11",
        "date_end": "1991-09-17",
        "dead": 112,
        "displaced": 1000000,
        "severity": 1.0,
        "is_inside_border": true
      }
    },
    {
      "type": "Feature",
      "geometry": {
        "type": "Point",
        "coordinates": [
          89.5171,
          24.6724
        ]
      },
      "properties": {
        "id": "590",
        "cause": "Dam/Levy, break or release",
        "date_start": "1991-09-28",
        "date_end": "1991-09-29",
        "dead": 0,
        "displaced": 50000,
        "severity": 1.0,
        "is_inside_border": true
      }
    },
    {
      "type": "Feature",
      "geometry": {
        "type": "Point",
        "coordinates": [
          92.2224,
          22.0692
        ]
      },
      "properties": {
        "id": "659",
        "cause": "Monsoonal rain",
        "date_start": "1992-06-25",
        "date_end": "1992-06-25",
        "dead": 2,
        "displaced": 50000,
        "severity": 1.0,
        "is_inside_border": true
      }
    },
    {
      "type": "Feature",
      "geometry": {
        "type": "Point",
        "coordinates": [
          92.0345,
          22.4749
        ]
      },
      "properties": {
        "id": "830",
        "cause": "Heavy rain",
        "date_start": "1994-02-26",
        "date_end": "1994-03-02",
        "dead": 13,
        "displaced": 0,
        "severity": 1.0,
        "is_inside_border": true
      }
    },
    {
      "type": "Feature",
      "geometry": {
        "type": "Point",
        "coordinates": [
          89.816,
          23.9528
        ]
      },
      "properties": {
        "id": "839",
        "cause": "Heavy rain",
        "date_start": "1994-03-29",
        "date_end": "1994-04-02",
        "dead": 16,
        "displaced": 100000,
        "severity": 1.0,
        "is_inside_border": true
      }
    },
    {
      "type": "Feature",
      "geometry": {
        "type": "Point",
        "coordinates": [
          92.0895,
          22.5171
        ]
      },
      "properties": {
        "id": "842",
        "cause": "Tropical cyclone",
        "date_start": "1994-04-19",
        "date_end": "1994-04-23",
        "dead": 20,
        "displaced": 12000,
        "severity": 1.0,
        "is_inside_border": true
      }
    },
    {
      "type": "Feature",
      "geometry": {
        "type": "Point",
        "coordinates": [
          91.803,
          24.6457
        ]
      },
      "properties": {
        "id": "849",
        "cause": "Monsoonal rain",
        "date_start": "1994-06-01",
        "date_end": "1994-06-06",
        "dead": 6,
        "displaced": 11000,
        "severity": 1.0,
        "is_inside_border": true
      }
    },
    {
      "type": "Feature",
      "geometry": {
        "type": "Point",
        "coordinates": [
          92.071,
          21.8758
        ]
      },
      "properties": {
        "id": "852",
        "cause": "Monsoonal rain",
        "date_start": "1994-06-14",
        "date_end": "1994-06-22",
        "dead": 1,
        "displaced": 0,
        "severity": 1.0,
        "is_inside_border": true
      }
    },
    {
      "type": "Feature",
      "geometry": {
        "type": "Point",
        "coordinates": [
          90.0958,
          22.9967
        ]
      },
      "properties": {
        "id": "953",
        "cause": "Heavy rain",
        "date_start": "1995-05-17",
        "date_end": "1995-05-24",
        "dead": 41,
        "displaced": 351000,
        "severity": 1.0,
        "is_inside_border": true
      }
    },
    {
      "type": "Feature",
      "geometry": {
        "type": "Point",
        "coordinates": [
          90.2429,
          25.1211
        ]
      },
      "properties": {
        "id": "961",
        "cause": "Monsoonal rain",
        "date_start": "1995-06-16",
        "date_end": "1995-06-23",
        "dead": 105,
        "displaced": 2000000,
        "severity": 1.0,
        "is_inside_border": true
      }
    },
    {
      "type": "Feature",
      "geometry": {
        "type": "Point",
        "coordinates": [
          88.9998,
          25.7626
        ]
      },
      "properties": {
        "id": "972",
        "cause": "Monsoonal rain",
        "date_start": "1995-07-04",
        "date_end": "1995-07-22",
        "dead": 250,
        "displaced": 15000000,
        "severity": 1.0,
        "is_inside_border": true
      }
    },
    {
      "type": "Feature",
      "geometry": {
        "type": "Point",
        "coordinates": [
          89.9406,
          24.8678
        ]
      },
      "properties": {
        "id": "982",
        "cause": "Monsoonal rain",
        "date_start": "1995-08-16",
        "date_end": "1995-08-23",
        "dead": 26,
        "displaced": 1000000,
        "severity": 1.0,
        "is_inside_border": true
      }
    },
    {
      "type": "Feature",
      "geometry": {
        "type": "Point",
        "coordinates": [
          90.2429,
          25.1334
        ]
      },
      "properties": {
        "id": "1012",
        "cause": "Monsoonal rain",
        "date_start": "1995-09-29",
        "date_end": "1995-10-16",
        "dead": 400,
        "displaced": 5300000,
        "severity": 1.0,
        "is_inside_border": true
      }
    },
    {
      "type": "Feature",
      "geometry": {
        "type": "Point",
        "coordinates": [
          90.3001,
          22.4166
        ]
      },
      "properties": {
        "id": "1032",
        "cause": "Tropical cyclone",
        "date_start": "1995-11-10",
        "date_end": "1995-11-13",
        "dead": 45,
        "displaced": 0,
        "severity": 1.0,
        "is_inside_border": true
      }
    },
    {
      "type": "Feature",
      "geometry": {
        "type": "Point",
        "coordinates": [
          90.1016,
          25.2408
        ]
      },
      "properties": {
        "id": "1082",
        "cause": "Monsoonal rain",
        "date_start": "1996-06-27",
        "date_end": "1996-07-09",
        "dead": 6,
        "displaced": 72000,
        "severity": 1.0,
        "is_inside_border": false
      }
    },
    {
      "type": "Feature",
      "geometry": {
        "type": "Point",
        "coordinates": [
          89.9688,
          23.0267
        ]
      },
      "properties": {
        "id": "1094",
        "cause": "Monsoonal rain",
        "date_start": "1996-07-19",
        "date_end": "1996-08-02",
        "dead": 50,
        "displaced": 2300000,
        "severity": 1.0,
        "is_inside_border": true
      }
    },
    {
      "type": "Feature",
      "geometry": {
        "type": "Point",
        "coordinates": [
          90.2861,
          25.3736
        ]
      },
      "properties": {
        "id": "1105",
        "cause": "Heavy Rain",
        "date_start": "1996-08-26",
        "date_end": "1996-09-07",
        "dead": 20,
        "displaced": 100000,
        "severity": 1.0,
        "is_inside_border": false
      }
    },
    {
      "type": "Feature",
      "geometry": {
        "type": "Point",
        "coordinates": [
          92.1256,
          22.4865
        ]
      },
      "properties": {
        "id": "1142",
        "cause": "Heavy rain",
        "date_start": "1997-03-19",
        "date_end": "1997-03-24",
        "dead": 25,
        "displaced": 5000,
        "severity": 1.0,
        "is_inside_border": true
      }
    },
    {
      "type": "Feature",
      "geometry": {
        "type": "Point",
        "coordinates": [
          92.071,
          21.7744
        ]
      },
      "properties": {
        "id": "1155",
        "cause": "Heavy rain",
        "date_start": "1997-06-14",
        "date_end": "1997-06-20",
        "dead": 0,
        "displaced": 4000,
        "severity": 1.0,
        "is_inside_border": true
      }
    },
    {
      "type": "Feature",
      "geometry": {
        "type": "Point",
        "coordinates": [
          91.9783,
          22.3517
        ]
      },
      "properties": {
        "id": "1162",
        "cause": "Heavy rain",
        "date_start": "1997-07-03",
        "date_end": "1997-07-15",
        "dead": 100,
        "displaced": 200000,
        "severity": 1.0,
        "is_inside_border": true
      }
    },
    {
      "type": "Feature",
      "geometry": {
        "type": "Point",
        "coordinates": [
          91.961,
          22.0189
        ]
      },
      "properties": {
        "id": "1165",
        "cause": "Heavy rain",
        "date_start": "1997-07-29",
        "date_end": "1997-08-04",
        "dead": 15,
        "displaced": 30000,
        "severity": 1.0,
        "is_inside_border": true
      }
    },
    {
      "type": "Feature",
      "geometry": {
        "type": "Point",
        "coordinates": [
          90.0268,
          23.4505
        ]
      },
      "properties": {
        "id": "1363",
        "cause": "Tropical cyclone",
        "date_start": "1998-05-20",
        "date_end": "1998-05-30",
        "dead": 0,
        "displaced": 0,
        "severity": 1.0,
        "is_inside_border": true
      }
    },
    {
      "type": "Feature",
      "geometry": {
        "type": "Point",
        "coordinates": [
          93.1722,
          26.7913
        ]
      },
      "properties": {
        "id": "1384",
        "cause": "Monsoonal rain",
        "date_start": "1998-06-09",
        "date_end": "1998-06-12",
        "dead": 77,
        "displaced": 2000,
        "severity": 1.0,
        "is_inside_border": false
      }
    },
    {
      "type": "Feature",
      "geometry": {
        "type": "Point",
        "coordinates": [
          91.5543,
          24.721
        ]
      },
      "properties": {
        "id": "1517",
        "cause": "Brief torrential rain",
        "date_start": "1999-06-21",
        "date_end": "1999-07-06",
        "dead": 19,
        "displaced": 100000,
        "severity": 1.0,
        "is_inside_border": true
      }
    },
    {
      "type": "Feature",
      "geometry": {
        "type": "Point",
        "coordinates": [
          89.6291,
          25.5968
        ]
      },
      "properties": {
        "id": "1527",
        "cause": "Monsoonal rain",
        "date_start": "1999-07-11",
        "date_end": "1999-08-03",
        "dead": 356,
        "displaced": 33100003,
        "severity": 1.0,
        "is_inside_border": true
      }
    },
    {
      "type": "Feature",
      "geometry": {
        "type": "Point",
        "coordinates": [
          90.5917,
          23.9425
        ]
      },
      "properties": {
        "id": "1540",
        "cause": "Heavy rain",
        "date_start": "1999-08-11",
        "date_end": "1999-08-15",
        "dead": 18,
        "displaced": 50000,
        "severity": 1.0,
        "is_inside_border": true
      }
    },
    {
      "type": "Feature",
      "geometry": {
        "type": "Point",
        "coordinates": [
          91.7119,
          23.5072
        ]
      },
      "properties": {
        "id": "1603",
        "cause": "Monsoonal rain",
        "date_start": "2000-05-27",
        "date_end": "2000-06-19",
        "dead": 36,
        "displaced": 10000,
        "severity": 1.0,
        "is_inside_border": false
      }
    },
    {
      "type": "Feature",
      "geometry": {
        "type": "Point",
        "coordinates": [
          89.7361,
          25.5567
        ]
      },
      "properties": {
        "id": "1611",
        "cause": "Monsoonal rain",
        "date_start": "2000-06-19",
        "date_end": "2000-06-26",
        "dead": 14,
        "displaced": 20000,
        "severity": 1.0,
        "is_inside_border": true
      }
    },
    {
      "type": "Feature",
      "geometry": {
        "type": "Point",
        "coordinates": [
          89.5736,
          25.9309
        ]
      },
      "properties": {
        "id": "1766",
        "cause": "Monsoonal rain",
        "date_start": "2001-07-31",
        "date_end": "2001-09-01",
        "dead": 36,
        "displaced": 2750000,
        "severity": 1.0,
        "is_inside_border": true
      }
    },
    {
      "type": "Feature",
      "geometry": {
        "type": "Point",
        "coordinates": [
          89.1688,
          22.6475
        ]
      },
      "properties": {
        "id": "1813",
        "cause": "Dam/Levy, break or release",
        "date_start": "2001-10-17",
        "date_end": "2001-10-19",
        "dead": 0,
        "displaced": 1200,
        "severity": 1.0,
        "is_inside_border": true
      }
    },
    {
      "type": "Feature",
      "geometry": {
        "type": "Point",
        "coordinates": [
          91.52,
          24.9818
        ]
      },
      "properties": {
        "id": "1908",
        "cause": "Dam/Levy, break or release",
        "date_start": "2002-04-18",
        "date_end": "2002-04-29",
        "dead": 0,
        "displaced": 0,
        "severity": 1.0,
        "is_inside_border": true
      }
    },
    {
      "type": "Feature",
      "geometry": {
        "type": "Point",
        "coordinates": [
          91.7747,
          24.4963
        ]
      },
      "properties": {
        "id": "1930",
        "cause": "Heavy rain",
        "date_start": "2002-05-23",
        "date_end": "2002-05-31",
        "dead": 0,
        "displaced": 0,
        "severity": 1.0,
        "is_inside_border": true
      }
    },
    {
      "type": "Feature",
      "geometry": {
        "type": "Point",
        "coordinates": [
          90.9923,
          25.2225
        ]
      },
      "properties": {
        "id": "1960",
        "cause": "Monsoonal rain",
        "date_start": "2002-06-18",
        "date_end": "2002-06-24",
        "dead": 4,
        "displaced": 20000,
        "severity": 1.0,
        "is_inside_border": false
      }
    },
    {
      "type": "Feature",
      "geometry": {
        "type": "Point",
        "coordinates": [
          90.8538,
          26.1706
        ]
      },
      "properties": {
        "id": "2248",
        "cause": "Monsoonal rain",
        "date_start": "2003-06-11",
        "date_end": "2003-10-10",
        "dead": 600,
        "displaced": 9500000,
        "severity": 2.0,
        "is_inside_border": false
      }
    },
    {
      "type": "Feature",
      "geometry": {
        "type": "Point",
        "coordinates": [
          91.9327,
          21.9239
        ]
      },
      "properties": {
        "id": "2257",
        "cause": "Monsoonal rain",
        "date_start": "2003-06-19",
        "date_end": "2003-07-03",
        "dead": 55,
        "displaced": 20000,
        "severity": 1.0,
        "is_inside_border": true
      }
    },
    {
      "type": "Feature",
      "geometry": {
        "type": "Point",
        "coordinates": [
          91.6947,
          24.8942
        ]
      },
      "properties": {
        "id": "2473",
        "cause": "Heavy rain",
        "date_start": "2004-04-14",
        "date_end": "2004-05-03",
        "dead": 12,
        "displaced": 50000,
        "severity": 1.0,
        "is_inside_border": true
      }
    },
    {
      "type": "Feature",
      "geometry": {
        "type": "Point",
        "coordinates": [
          91.6424,
          24.598
        ]
      },
      "properties": {
        "id": "2657",
        "cause": "Heavy rain",
        "date_start": "2005-05-25",
        "date_end": "2005-05-28",
        "dead": 13,
        "displaced": 50000,
        "severity": 1.0,
        "is_inside_border": true
      }
    },
    {
      "type": "Feature",
      "geometry": {
        "type": "Point",
        "coordinates": [
          89.1145,
          25.9614
        ]
      },
      "properties": {
        "id": "2676",
        "cause": "Monsoonal rain",
        "date_start": "2005-06-23",
        "date_end": "2005-06-30",
        "dead": 5,
        "displaced": 70000,
        "severity": 1.0,
        "is_inside_border": true
      }
    },
    {
      "type": "Feature",
      "geometry": {
        "type": "Point",
        "coordinates": [
          88.977,
          25.6406
        ]
      },
      "properties": {
        "id": "2747",
        "cause": "Heavy rain",
        "date_start": "2005-10-03",
        "date_end": "2005-10-22",
        "dead": 19,
        "displaced": 100000,
        "severity": 1.0,
        "is_inside_border": true
      }
    },
    {
      "type": "Feature",
      "geometry": {
        "type": "Point",
        "coordinates": [
          89.2727,
          23.2295
        ]
      },
      "properties": {
        "id": "2961",
        "cause": "Monsoonal rain",
        "date_start": "2006-08-24",
        "date_end": "2006-09-20",
        "dead": 0,
        "displaced": 0,
        "severity": 1.0,
        "is_inside_border": true
      }
    },
    {
      "type": "Feature",
      "geometry": {
        "type": "Point",
        "coordinates": [
          91.9535,
          22.3975
        ]
      },
      "properties": {
        "id": "3097",
        "cause": "Monsoonal rain",
        "date_start": "2007-06-11",
        "date_end": "2007-06-24",
        "dead": 126,
        "displaced": 80000,
        "severity": 1.0,
        "is_inside_border": true
      }
    },
    {
      "type": "Feature",
      "geometry": {
        "type": "Point",
        "coordinates": [
          91.2336,
          23.9164
        ]
      },
      "properties": {
        "id": "3136",
        "cause": "Monsoonal rain",
        "date_start": "2007-07-21",
        "date_end": "2007-10-15",
        "dead": 1071,
        "displaced": 5000000,
        "severity": 1.0,
        "is_inside_border": false
      }
    },
    {
      "type": "Feature",
      "geometry": {
        "type": "Point",
        "coordinates": [
          90.1508,
          22.6104
        ]
      },
      "properties": {
        "id": "3226",
        "cause": "Tropical cyclone",
        "date_start": "2007-11-15",
        "date_end": "2007-12-01",
        "dead": 3447,
        "displaced": 3000000,
        "severity": 1.0,
        "is_inside_border": true
      }
    },
    {
      "type": "Feature",
      "geometry": {
        "type": "Point",
        "coordinates": [
          90.1165,
          25.2159
        ]
      },
      "properties": {
        "id": "3322",
        "cause": "Levee failure, early monsoonal rain",
        "date_start": "2008-06-20",
        "date_end": "2008-06-22",
        "dead": 0,
        "displaced": 15000,
        "severity": 1.0,
        "is_inside_border": true
      }
    },
    {
      "type": "Feature",
      "geometry": {
        "type": "Point",
        "coordinates": [
          90.21,
          25.0288
        ]
      },
      "properties": {
        "id": "3371",
        "cause": "Monsoon Rains",
        "date_start": "2008-08-30",
        "date_end": "2008-09-08",
        "dead": 0,
        "displaced": 600000,
        "severity": 1.5,
        "is_inside_border": true
      }
    },
    {
      "type": "Feature",
      "geometry": {
        "type": "Point",
        "coordinates": [
          89.0861,
          22.164
        ]
      },
      "properties": {
        "id": "3485",
        "cause": "Heavy Rain",
        "date_start": "2009-04-20",
        "date_end": "2009-05-15",
        "dead": 21,
        "displaced": 15000,
        "severity": 1.5,
        "is_inside_border": true
      }
    },
    {
      "type": "Feature",
      "geometry": {
        "type": "Point",
        "coordinates": [
          89.0861,
          25.2562
        ]
      },
      "properties": {
        "id": "3495",
        "cause": "Torrential Rain",
        "date_start": "2009-07-03",
        "date_end": "2009-07-06",
        "dead": 20,
        "displaced": 700000,
        "severity": 1.0,
        "is_inside_border": true
      }
    },
    {
      "type": "Feature",
      "geometry": {
        "type": "Point",
        "coordinates": [
          89.5099,
          22.1528
        ]
      },
      "properties": {
        "id": "3633",
        "cause": "Heavy Rain",
        "date_start": "2010-03-27",
        "date_end": "2010-04-07",
        "dead": 104,
        "displaced": 0,
        "severity": 1.0,
        "is_inside_border": true
      }
    },
    {
      "type": "Feature",
      "geometry": {
        "type": "Point",
        "coordinates": [
          90.0355,
          23.9949
        ]
      },
      "properties": {
        "id": "3679",
        "cause": "Monsoonal Rain",
        "date_start": "2010-07-01",
        "date_end": "2010-07-13",
        "dead": 0,
        "displaced": 600000,
        "severity": 1.0,
        "is_inside_border": true
      }
    },
    {
      "type": "Feature",
      "geometry": {
        "type": "Point",
        "coordinates": [
          89.64,
          25.425
        ]
      },
      "properties": {
        "id": "3716",
        "cause": "Monsoon Rains",
        "date_start": "2010-09-09",
        "date_end": "2010-09-30",
        "dead": 0,
        "displaced": 140000,
        "severity": 1.5,
        "is_inside_border": true
      }
    },
    {
      "type": "Feature",
      "geometry": {
        "type": "Point",
        "coordinates": [
          91.035,
          24.21
        ]
      },
      "properties": {
        "id": "3732",
        "cause": "Heavy Rain and Storm Surge",
        "date_start": "2010-10-01",
        "date_end": "2010-10-12",
        "dead": 15,
        "displaced": 500000,
        "severity": 1.5,
        "is_inside_border": true
      }
    },
    {
      "type": "Feature",
      "geometry": {
        "type": "Point",
        "coordinates": [
          89.0463,
          22.5641
        ]
      },
      "properties": {
        "id": "3843",
        "cause": "Monsoonal Rain",
        "date_start": "2011-07-21",
        "date_end": "2011-07-29",
        "dead": 6,
        "displaced": 10000,
        "severity": 1.5,
        "is_inside_border": true
      }
    },
    {
      "type": "Feature",
      "geometry": {
        "type": "Point",
        "coordinates": [
          92.0988,
          22.1723
        ]
      },
      "properties": {
        "id": "3939",
        "cause": "Monsoonal Rain",
        "date_start": "2012-06-24",
        "date_end": "2012-07-02",
        "dead": 106,
        "displaced": 102000,
        "severity": 1.5,
        "is_inside_border": true
      }
    },
    {
      "type": "Feature",
      "geometry": {
        "type": "Point",
        "coordinates": [
          91.194,
          23.6387
        ]
      },
      "properties": {
        "id": "4056",
        "cause": "Tropical Storm Mahasen",
        "date_start": "2013-05-14",
        "date_end": "2013-05-16",
        "dead": 19,
        "displaced": 1166000,
        "severity": 1.5,
        "is_inside_border": false
      }
    },
    {
      "type": "Feature",
      "geometry": {
        "type": "Point",
        "coordinates": [
          90.5498,
          22.3313
        ]
      },
      "properties": {
        "id": "4161",
        "cause": "Heavy Rain and High Tide",
        "date_start": "2014-07-13",
        "date_end": "2014-07-14",
        "dead": 0,
        "displaced": 30000,
        "severity": 1.5,
        "is_inside_border": true
      }
    },
    {
      "type": "Feature",
      "geometry": {
        "type": "Point",
        "coordinates": [
          90.6333,
          24.5661
        ]
      },
      "properties": {
        "id": "4178",
        "cause": "Monsoonal Rain",
        "date_start": "2014-08-20",
        "date_end": "2014-09-08",
        "dead": 17,
        "displaced": 500000,
        "severity": 1.5,
        "is_inside_border": true
      }
    },
    {
      "type": "Feature",
      "geometry": {
        "type": "Point",
        "coordinates": [
          91.9942,
          22.4079
        ]
      },
      "properties": {
        "id": "4263",
        "cause": "Torrential Rain",
        "date_start": "2015-06-24",
        "date_end": "2015-06-29",
        "dead": 0,
        "displaced": 23,
        "severity": 1.5,
        "is_inside_border": true
      }
    },
    {
      "type": "Feature",
      "geometry": {
        "type": "Point",
        "coordinates": [
          90.0395,
          24.095
        ]
      },
      "properties": {
        "id": "4382",
        "cause": "Monsoonal Rain",
        "date_start": "2016-07-25",
        "date_end": "2016-08-26",
        "dead": 42,
        "displaced": 25000,
        "severity": 1.5,
        "is_inside_border": true
      }
    },
    {
      "type": "Feature",
      "geometry": {
        "type": "Point",
        "coordinates": [
          90.6828,
          24.3178
        ]
      },
      "properties": {
        "id": "4459",
        "cause": "Heavy Rain",
        "date_start": "2017-03-30",
        "date_end": "2017-04-18",
        "dead": 0,
        "displaced": 0,
        "severity": 1.0,
        "is_inside_border": true
      }
    },
    {
      "type": "Feature",
      "geometry": {
        "type": "Point",
        "coordinates": [
          89.5446,
          25.3101
        ]
      },
      "properties": {
        "id": "4466",
        "cause": "Heavy Rain",
        "date_start": "2017-04-16",
        "date_end": "2017-05-02",
        "dead": 20,
        "displaced": 0,
        "severity": 1.0,
        "is_inside_border": true
      }
    },
    {
      "type": "Feature",
      "geometry": {
        "type": "Point",
        "coordinates": [
          92.1427,
          22.2842
        ]
      },
      "properties": {
        "id": "4484",
        "cause": "Monsoonal Rain",
        "date_start": "2017-06-11",
        "date_end": "2017-06-14",
        "dead": 60,
        "displaced": 0,
        "severity": 1.5,
        "is_inside_border": true
      }
    },
    {
      "type": "Feature",
      "geometry": {
        "type": "Point",
        "coordinates": [
          90.0148,
          24.5912
        ]
      },
      "properties": {
        "id": "4508",
        "cause": "Monsoonal Rain",
        "date_start": "2017-08-10",
        "date_end": "2017-08-26",
        "dead": 117,
        "displaced": 300000,
        "severity": 1.5,
        "is_inside_border": true
      }
    },
    {
      "type": "Feature",
      "geometry": {
        "type": "Point",
        "coordinates": [
          92.1303,
          23.2262
        ]
      },
      "properties": {
        "id": "4617",
        "cause": "Torrential Rain",
        "date_start": "2018-05-20",
        "date_end": "2018-05-22",
        "dead": 21,
        "displaced": 14000,
        "severity": 1.5,
        "is_inside_border": true
      }
    },
    {
      "type": "Feature",
      "geometry": {
        "type": "Point",
        "coordinates": [
          89.3518,
          25.1859
        ]
      },
      "properties": {
        "id": "4769",
        "cause": "Monsoonal Rain",
        "date_start": "2019-07-10",
        "date_end": "2019-07-13",
        "dead": 0,
        "displaced": 10000,
        "severity": 1.0,
        "is_inside_border": true
      }
    },
    {
      "type": "Feature",
      "geometry": {
        "type": "Point",
        "coordinates": [
          89.8168,
          24.7648
        ]
      },
      "properties": {
        "id": "4939",
        "cause": "Monsoonal Rain",
        "date_start": "2020-06-30",
        "date_end": "2020-07-30",
        "dead": 0,
        "displaced": 30000,
        "severity": 1.5,
        "is_inside_border": true
      }
    },
    {
      "type": "Feature",
      "geometry": {
        "type": "Point",
        "coordinates": [
          92.1303,
          21.875
        ]
      },
      "properties": {
        "id": "5106",
        "cause": "Monsoonal Rain",
        "date_start": "2021-07-27",
        "date_end": "2021-07-30",
        "dead": 8,
        "displaced": 0,
        "severity": 1.5,
        "is_inside_border": true
      }
    }
  ]
}