{"type": "FeatureCollection", "features": [{"type": "Feature", "geometry": {"type": "Point", "coordinates": [90.039956, 23.9925958]}, "properties": {"amenity": "school", "name": "Baliati I.C. High School", "risk_dist": "within 1km"}}, {"type": "Feature", "geometry": {"type": "Point", "coordinates": [90.7009417, 22.5665082]}, "properties": {"addr:district": "Bhola", "addr:union": "Dakkhin Joynagar", "addr:ward": "8", "amenity": "school", "building": "yes", "damage": "no", "description": "3 storied building", "name": "26 no. Dakkhin Joynagar Govt Primary School", "source": "survey", "source:name": "logic_undp", "source_date": "2018-10-20", "source_ref": "https://www.openstreetmap.org/user/aHaSaN/diary", "risk_dist": "within 1km"}}, {"type": "Feature", "geometry": {"type": "Point", "coordinates": [90.7049811, 22.5722346]}, "properties": {"addr:district": "Bhola", "addr:union": "Dakkhin Joynagar", "addr:ward": "8", "amenity": "school", "building": "yes", "damage": "no", "description": "Pacca building", "name": "Uttor purbo Dakkhin Joynagar Govt. Primary School", "source": "survey", "source:name": "logic_undp", "source_date": "2018-10-20", "source_ref": "https://www.openstreetmap.org/user/aHaSaN/diary", "risk_dist": "within 1km"}}, {"type": "Feature", "geometry": {"type": "Point", "coordinates": [90.6931365, 22.5780474]}, "properties": {"addr:district": "Bhola", "addr:union": "Uttar Joynagar", "addr:ward": "8", "amenity": "school", "damage": "no", "description": "semi paca, land 40 decimal, students 300, teacher 15.", "name": "Modho Joynagar Islamia Dakhil Madrasa.", "source": "survey", "source:date": "2018-08-11", "source:name": "logic_undp", "risk_dist": "within 1km"}}, {"type": "Feature", "geometry": {"type": "Point", "coordinates": [90.695309, 22.5701046]}, "properties": {"addr:district": "Bhola", "addr:union": "Uttar Joynagar", "addr:ward": "8", "amenity": "school", "damage": "no", "description": "pacca building, student 227, teacher 6, land 75 decimal.", "name": "Uttar purbo modho joynagar Govt. Primary School", "source": "survey", "source:date": "2018-08-11", "source:name": "logic_undp", "risk_dist": "within 1km"}}, {"type": "Feature", "geometry": {"type": "Point", "coordinates": [90.7017249, 22.5820075]}, "properties": {"addr:district": "Bhola", "addr:union": "Uttar Joynagar", "addr:ward": "9", "amenity": "school", "damage": "no", "description": "vacant", "name": "Nurani Forkaniea Madrassa", "source": "survey", "source:date": "2018-08-11", "source:name": "logic_undp", "risk_dist": "within 1km"}}, {"type": "Feature", "geometry": {"type": "Point", "coordinates": [91.7756519, 24.4890818]}, "properties": {"addr:city": "Moulvibazar", "addr:street": "Court Road", "amenity": "school", "name": "Kashinath Alauddin High School & College", "risk_dist": "within 1km"}}, {"type": "Feature", "geometry": {"type": "Point", "coordinates": [90.6835972, 24.3152506]}, "properties": {"amenity": "school", "name": "Ujjibon Govt School", "risk_dist": "within 1km"}}, {"type": "Feature", "geometry": {"type": "Point", "coordinates": [89.3364528, 24.0708758]}, "properties": {"amenity": "school", "name": "Ekdanta High School", "office": "educational_institution", "risk_dist": "within 1km"}}, {"type": "Feature", "geometry": {"type": "Point", "coordinates": [92.0796553, 21.7738565]}, "properties": {"amenity": "school", "name": "Al Hera Cadet Academy", "risk_dist": "within 1km"}}, {"type": "Feature", "geometry": {"type": "Point", "coordinates": [90.3538535, 23.82506]}, "properties": {"addr:floor": "G,1,2,3", "addr:housenumber": "50", "addr:street": "1", "addr:unit": "Block E", "amenity": "school", "check_date": "2024-03-15", "grades": "Play Group - 9", "level": "123", "name": "Kabi Nazrul Academy School and College", "operator:type": "public", "risk_dist": "within 1km"}}, {"type": "Feature", "geometry": {"type": "Point", "coordinates": [90.3556323, 23.8172834]}, "properties": {"amenity": "school", "check_date": "2024-05-08", "name": "Kamal Ahmed Majumdar School and College", "risk_dist": "within 1km"}}, {"type": "Feature", "geometry": {"type": "Point", "coordinates": [90.3551362, 23.8246732]}, "properties": {"addr:street": "Road 16", "amenity": "school", "name": "Duaripara Government College", "risk_dist": "within 1km"}}, {"type": "Feature", "geometry": {"type": "Point", "coordinates": [90.3486053, 23.8116789]}, "properties": {"addr:suburb": "Bashpotti Slum", "amenity": "school", "name": "Jamiah Islamiah Hamiussunnah Madrasa", "operator": "religious", "source": "DhakaThrive_Survey", "risk_dist": "within 1km"}}, {"type": "Feature", "geometry": {"type": "Point", "coordinates": [90.3487927, 23.8122639]}, "properties": {"addr:suburb": "Bashpotti Slum", "amenity": "school", "capacity": "120", "name": "Ananda Niketan Primary School", "source": "DhakaThrive_Survey", "risk_dist": "within 1km"}}, {"type": "Feature", "geometry": {"type": "Point", "coordinates": [89.8967984, 24.1339071]}, "properties": {"amenity": "school", "name": "Elashin Nasimun Nesa Girls High School, High school", "risk_dist": "within 1km"}}, {"type": "Feature", "geometry": {"type": "Point", "coordinates": [89.9020267, 24.1406109]}, "properties": {"amenity": "school", "name": "Yale International School, School", "risk_dist": "within 1km"}}, {"type": "Feature", "geometry": {"type": "Point", "coordinates": [89.8967293, 24.1340809]}, "properties": {"amenity": "school", "name": "Elashin Nachimunnecha Girls High School, School", "risk_dist": "within 1km"}}, {"type": "Feature", "geometry": {"type": "Point", "coordinates": [89.9453959, 24.8618994]}, "properties": {"amenity": "school", "name": "Narikeli Government Primary School", "risk_dist": "within 1km"}}, {"type": "Feature", "geometry": {"type": "Point", "coordinates": [89.944766, 24.8616261]}, "properties": {"amenity": "school", "name": "Narikeli High School, High school", "risk_dist": "within 1km"}}, {"type": "Feature", "geometry": {"type": "Point", "coordinates": [89.9439063, 24.8595653]}, "properties": {"amenity": "school", "name": "Madur Bazar Girls High school", "risk_dist": "within 1km"}}, {"type": "Feature", "geometry": {"type": "Point", "coordinates": [89.9411012, 24.8727216]}, "properties": {"amenity": "school", "name": "Mollapara Ideal School, School", "risk_dist": "within 1km"}}, {"type": "Feature", "geometry": {"type": "Point", "coordinates": [90.1109806, 25.2120122]}, "properties": {"amenity": "school", "name": "Sandhya Kura Government Primary School, Primary school", "risk_dist": "within 1km"}}]}